CYGFM02                 
1 41886U 16078C   21362.56371913  .00001896  00000+0  98210-4 0  9995
2 41886  34.9570 177.5733 0014716   7.2167 352.8754 15.15905457278959
CYGFM01                 
1 41887U 16078D   21362.56899698  .00001825  00000+0  96512-4 0  9996
2 41887  34.9514 187.3245 0016169 357.5848   2.4784 15.15166009278791
CYGFM08                 
1 41888U 16078E   21361.87908261  .00001896  00000+0  99035-4 0  9998
2 41888  34.9484 185.0336 0015302   1.7443 358.3320 15.15589701278811
CYGFM06                 
1 41889U 16078F   21362.61116404  .00001953  00000+0  10119-3 0  9991
2 41889  34.9566 175.9845 0013680   7.2891 352.8018 15.15889618278904
CYGFM07                 
1 41890U 16078G   21362.59034655  .00001932  00000+0  10013-3 0  9997
2 41890  34.9505 174.9562 0013398  11.1959 348.9049 15.15883415278885
CYGFM03                 
1 41891U 16078H   21362.58831861  .00001924  00000+0  99738-4 0  9994
2 41891  34.9535 175.3891 0012938   9.2744 350.8204 15.15879188278874
FENGYUN 3D              
1 43010U 17072A   21362.59570571  .00000052  00000+0  45919-4 0  9996
2 43010  98.7972 303.2268 0002672  47.8590 312.2807 14.19175389213531
NOAA 20                 
1 43013U 17073A   21362.72042515  .00000038  00000+0  38681-4 0  9999
2 43013  98.7410 298.5635 0001134 101.5213 258.6090 14.19566475213006
GOES 17                 
1 43226U 18022A   21362.63442278  .00000117  00000+0  00000+0 0  9997
2 43226   0.0564 234.1566 0000418  51.5808 262.7580  1.00271125 14061
FENGYUN 2H              
1 43491U 18050A   21362.50984326 -.00000107  00000+0  00000+0 0  9993
2 43491   0.7189 101.4015 0003052  42.5489 215.8884  1.00268096 13071
METOP-C                 
1 43689U 18087A   21362.74894290  .00000046  00000+0  41016-4 0  9996
2 43689  98.7104  60.2655 0003304 156.2055 203.9276 14.21486450163058
GEO-KOMPSAT-2A          
1 43823U 18100A   21362.51961170 -.00000325  00000+0  00000+0 0  9993
2 43823   0.0409 168.1075 0000488 257.7241 346.6821  1.00269153 11257
METEOR-M2 2             
1 44387U 19038A   21362.51428997 -.00000015  00000+0  12470-4 0  9990
2 44387  98.6992 319.8951 0002319  64.0982 296.0430 14.23695939129086
