[
    {
        "OBJECT_NAME": "CYGFM02",
        "OBJECT_ID": "2016-078C",
        "EPOCH": "2021-12-28T13:31:45.332832",
        "MEAN_MOTION": 15.15905457,
        "ECCENTRICITY": 0.0014716,
        "INCLINATION": 34.957,
        "RA_OF_ASC_NODE": 177.5733,
        "ARG_OF_PERICENTER": 7.2167,
        "MEAN_ANOMALY": 352.8754,
        "EPHEMERIS_TYPE": 0,
        "CLASSIFICATION_TYPE": "U",
        "NORAD_CAT_ID": 41886,
        "ELEMENT_SET_NO": 999,
        "REV_AT_EPOCH": 27895,
        "BSTAR": 9.821e-05,
        "MEAN_MOTION_DOT": 1.896e-05,
        "MEAN_MOTION_DDOT": 0
    },
    {
        "OBJECT_NAME": "CYGFM01",
        "OBJECT_ID": "2016-078D",
        "EPOCH": "2021-12-28T13:39:21.339072",
        "MEAN_MOTION": 15.15166009,
        "ECCENTRICITY": 0.0016169,
        "INCLINATION": 34.9514,
        "RA_OF_ASC_NODE": 187.3245,
        "ARG_OF_PERICENTER": 357.5848,
        "MEAN_ANOMALY": 2.4784,
        "EPHEMERIS_TYPE": 0,
        "CLASSIFICATION_TYPE": "U",
        "NORAD_CAT_ID": 41887,
        "ELEMENT_SET_NO": 999,
        "REV_AT_EPOCH": 27879,
        "BSTAR": 9.6512e-05,
        "MEAN_MOTION_DOT": 1.825e-05,
        "MEAN_MOTION_DDOT": 0
    },
    {
        "OBJECT_NAME": "CYGFM08",
        "OBJECT_ID": "2016-078E",
        "EPOCH": "2021-12-27T21:05:52.737504",
        "MEAN_MOTION": 15.15589701,
        "ECCENTRICITY": 0.0015302,
        "INCLINATION": 34.9484,
        "RA_OF_ASC_NODE": 185.0336,
        "ARG_OF_PERICENTER": 1.7443,
        "MEAN_ANOMALY": 358.332,
        "EPHEMERIS_TYPE": 0,
        "CLASSIFICATION_TYPE": "U",
        "NORAD_CAT_ID": 41888,
        "ELEMENT_SET_NO": 999,
        "REV_AT_EPOCH": 27881,
        "BSTAR": 9.9035e-05,
        "MEAN_MOTION_DOT": 1.896e-05,
        "MEAN_MOTION_DDOT": 0
    },
    {
        "OBJECT_NAME": "CYGFM06",
        "OBJECT_ID": "2016-078F",
        "EPOCH": "2021-12-28T14:40:04.573056",
        "MEAN_MOTION": 15.15889618,
        "ECCENTRICITY": 0.001368,
        "INCLINATION": 34.9566,
        "RA_OF_ASC_NODE": 175.9845,
        "ARG_OF_PERICENTER": 7.2891,
        "MEAN_ANOMALY": 352.8018,
        "EPHEMERIS_TYPE": 0,
        "CLASSIFICATION_TYPE": "U",
        "NORAD_CAT_ID": 41889,
        "ELEMENT_SET_NO": 999,
        "REV_AT_EPOCH": 27890,
        "BSTAR": 0.00010119,
        "MEAN_MOTION_DOT": 1.953e-05,
        "MEAN_MOTION_DDOT": 0
    },
    {
        "OBJECT_NAME": "CYGFM07",
        "OBJECT_ID": "2016-078G",
        "EPOCH": "2021-12-28T14:10:05.941920",
        "MEAN_MOTION": 15.15883415,
        "ECCENTRICITY": 0.0013398,
        "INCLINATION": 34.9505,
        "RA_OF_ASC_NODE": 174.9562,
        "ARG_OF_PERICENTER": 11.1959,
        "MEAN_ANOMALY": 348.9049,
        "EPHEMERIS_TYPE": 0,
        "CLASSIFICATION_TYPE": "U",
        "NORAD_CAT_ID": 41890,
        "ELEMENT_SET_NO": 999,
        "REV_AT_EPOCH": 27888,
        "BSTAR": 0.00010013,
        "MEAN_MOTION_DOT": 1.932e-05,
        "MEAN_MOTION_DDOT": 0
    },
    {
        "OBJECT_NAME": "CYGFM03",
        "OBJECT_ID": "2016-078H",
        "EPOCH": "2021-12-28T14:07:10.727904",
        "MEAN_MOTION": 15.15879188,
        "ECCENTRICITY": 0.0012938,
        "INCLINATION": 34.9535,
        "RA_OF_ASC_NODE": 175.3891,
        "ARG_OF_PERICENTER": 9.2744,
        "MEAN_ANOMALY": 350.8204,
        "EPHEMERIS_TYPE": 0,
        "CLASSIFICATION_TYPE": "U",
        "NORAD_CAT_ID": 41891,
        "ELEMENT_SET_NO": 999,
        "REV_AT_EPOCH": 27887,
        "BSTAR": 9.9738e-05,
        "MEAN_MOTION_DOT": 1.924e-05,
        "MEAN_MOTION_DDOT": 0
    },
    {
        "OBJECT_NAME": "FENGYUN 3D",
        "OBJECT_ID": "2017-072A",
        "EPOCH": "2021-12-28T14:17:48.973344",
        "MEAN_MOTION": 14.19175389,
        "ECCENTRICITY": 0.0002672,
        "INCLINATION": 98.7972,
        "RA_OF_ASC_NODE": 303.2268,
        "ARG_OF_PERICENTER": 47.859,
        "MEAN_ANOMALY": 312.2807,
        "EPHEMERIS_TYPE": 0,
        "CLASSIFICATION_TYPE": "U",
        "NORAD_CAT_ID": 43010,
        "ELEMENT_SET_NO": 999,
        "REV_AT_EPOCH": 21353,
        "BSTAR": 4.5919e-05,
        "MEAN_MOTION_DOT": 5.2e-07,
        "MEAN_MOTION_DDOT": 0
    },
    {
        "OBJECT_NAME": "NOAA 20",
        "OBJECT_ID": "2017-073A",
        "EPOCH": "2021-12-28T17:17:24.732960",
        "MEAN_MOTION": 14.19566475,
        "ECCENTRICITY": 0.0001134,
        "INCLINATION": 98.741,
        "RA_OF_ASC_NODE": 298.5635,
        "ARG_OF_PERICENTER": 101.5213,
        "MEAN_ANOMALY": 258.609,
        "EPHEMERIS_TYPE": 0,
        "CLASSIFICATION_TYPE": "U",
        "NORAD_CAT_ID": 43013,
        "ELEMENT_SET_NO": 999,
        "REV_AT_EPOCH": 21300,
        "BSTAR": 3.8681e-05,
        "MEAN_MOTION_DOT": 3.8e-07,
        "MEAN_MOTION_DDOT": 0
    },
    {
        "OBJECT_NAME": "GOES 17",
        "OBJECT_ID": "2018-022A",
        "EPOCH": "2021-12-28T15:13:34.128192",
        "MEAN_MOTION": 1.00271125,
        "ECCENTRICITY": 4.18e-05,
        "INCLINATION": 0.0564,
        "RA_OF_ASC_NODE": 234.1566,
        "ARG_OF_PERICENTER": 51.5808,
        "MEAN_ANOMALY": 262.758,
        "EPHEMERIS_TYPE": 0,
        "CLASSIFICATION_TYPE": "U",
        "NORAD_CAT_ID": 43226,
        "ELEMENT_SET_NO": 999,
        "REV_AT_EPOCH": 1406,
        "BSTAR": 0,
        "MEAN_MOTION_DOT": 1.17e-06,
        "MEAN_MOTION_DDOT": 0
    },
    {
        "OBJECT_NAME": "FENGYUN 2H",
        "OBJECT_ID": "2018-050A",
        "EPOCH": "2021-12-28T12:14:10.457664",
        "MEAN_MOTION": 1.00268096,
        "ECCENTRICITY": 0.0003052,
        "INCLINATION": 0.7189,
        "RA_OF_ASC_NODE": 101.4015,
        "ARG_OF_PERICENTER": 42.5489,
        "MEAN_ANOMALY": 215.8884,
        "EPHEMERIS_TYPE": 0,
        "CLASSIFICATION_TYPE": "U",
        "NORAD_CAT_ID": 43491,
        "ELEMENT_SET_NO": 999,
        "REV_AT_EPOCH": 1307,
        "BSTAR": 0,
        "MEAN_MOTION_DOT": -1.07e-06,
        "MEAN_MOTION_DDOT": 0
    },
    {
        "OBJECT_NAME": "METOP-C",
        "OBJECT_ID": "2018-087A",
        "EPOCH": "2021-12-28T17:58:28.666560",
        "MEAN_MOTION": 14.2148645,
        "ECCENTRICITY": 0.0003304,
        "INCLINATION": 98.7104,
        "RA_OF_ASC_NODE": 60.2655,
        "ARG_OF_PERICENTER": 156.2055,
        "MEAN_ANOMALY": 203.9276,
        "EPHEMERIS_TYPE": 0,
        "CLASSIFICATION_TYPE": "U",
        "NORAD_CAT_ID": 43689,
        "ELEMENT_SET_NO": 999,
        "REV_AT_EPOCH": 16305,
        "BSTAR": 4.1016e-05,
        "MEAN_MOTION_DOT": 4.6e-07,
        "MEAN_MOTION_DDOT": 0
    },
    {
        "OBJECT_NAME": "GEO-KOMPSAT-2A",
        "OBJECT_ID": "2018-100A",
        "EPOCH": "2021-12-28T12:28:14.450880",
        "MEAN_MOTION": 1.00269153,
        "ECCENTRICITY": 4.88e-05,
        "INCLINATION": 0.0409,
        "RA_OF_ASC_NODE": 168.1075,
        "ARG_OF_PERICENTER": 257.7241,
        "MEAN_ANOMALY": 346.6821,
        "EPHEMERIS_TYPE": 0,
        "CLASSIFICATION_TYPE": "U",
        "NORAD_CAT_ID": 43823,
        "ELEMENT_SET_NO": 999,
        "REV_AT_EPOCH": 1125,
        "BSTAR": 0,
        "MEAN_MOTION_DOT": -3.25e-06,
        "MEAN_MOTION_DDOT": 0
    },
    {
        "OBJECT_NAME": "METEOR-M2 2",
        "OBJECT_ID": "2019-038A",
        "EPOCH": "2021-12-28T12:20:34.653408",
        "MEAN_MOTION": 14.23695939,
        "ECCENTRICITY": 0.0002319,
        "INCLINATION": 98.6992,
        "RA_OF_ASC_NODE": 319.8951,
        "ARG_OF_PERICENTER": 64.0982,
        "MEAN_ANOMALY": 296.043,
        "EPHEMERIS_TYPE": 0,
        "CLASSIFICATION_TYPE": "U",
        "NORAD_CAT_ID": 44387,
        "ELEMENT_SET_NO": 999,
        "REV_AT_EPOCH": 12908,
        "BSTAR": 1.247e-05,
        "MEAN_MOTION_DOT": -1.5e-07,
        "MEAN_MOTION_DDOT": 0
    }
]